0 COSMOS 397 DEB *
1 05414U 71015BL  13280.87556666  .00000078  00000-0  10073-3 0  7235
2 05414 066.7683 082.0851 0090923 269.2180 251.4483 14.01414045175810
0 COSMOS 397 DEB *
1 05414U 71015BL  13283.41901826  .00000182  00000-0  16698-3 0  7246
2 05414 066.7687 075.7549 0090937 267.5593 123.2655 14.01414617176173
0 COSMOS 397 DEB *
1 05414U 71015BL  13285.49438635  .00000044  00000-0  78921-4 0  7255
2 05414 066.7692 070.5897 0090850 266.2393 153.5433 14.01416417176468
0 COSMOS 397 DEB *
1 05414U 71015BL  13287.85296362  .00000039  00000-0  75545-4 0  7260
2 05414 066.7700 064.7199 0090853 264.7099 172.6652 14.01418051176794
0 COSMOS 397 DEB *
1 05414U 71015BL  13291.41811888  .00000261  00000-0  21730-3 0  7277
2 05414 066.7704 055.8477 0090851 262.3898 159.0664 14.01418104177294
0 COSMOS 397 DEB *
1 05414U 71015BL  13293.79199237  .00000216  00000-0  18892-3 0  7283
2 05414 066.7704 049.9401 0090853 260.8547 255.3740 14.01420576177629
